NORAD_CAT_ID,OBJECT_NAME,OBJECT_TYPE,EPOCH,MEAN_MOTION,ECCENTRICITY,INCLINATION,RA_OF_ASC_NODE,ARG_OF_PERICENTER,MEAN_ANOMALY,BSTAR,MEAN_MOTION_DOT,MEAN_MOTION_DDOT,TLE_LINE0,TLE_LINE1,TLE_LINE2,SEMIMAJOR_AXIS,PERIOD,APOGEE,PERIGEE,DECAYED
56800.0,STARLINK-6036,PAYLOAD,2023-10-16 00:43:35,14.98326987,0.0003018,70.0003,32.3537,269.8893,90.192,-2.4625e-05,-3.87e-06,0.0,0 STARLINK-6036,1 56800U 23078AK  23289.03027657 -.00000387  00000-0 -24625-4 0  9996,2 56800  70.0003  32.3537 0003018 269.8893  90.1920 14.98326987 21776,6950.202,96.107,574.165,569.97,0.0
56800.0,STARLINK-6036,PAYLOAD,2023-10-16 10:20:23,14.98336593,0.0003039,70.0001,31.3439,270.2233,89.8578,-7.2755e-05,-9.61e-06,0.0,0 STARLINK-6036,1 56800U 23078AK  23289.43083170 -.00000961  00000-0 -72755-4 0  9997,2 56800  70.0001  31.3439 0003039 270.2233  89.8578 14.98336593 21836,6950.173,96.107,574.15,569.925,0.0
56800.0,STARLINK-6036,PAYLOAD,2023-10-16 13:32:39,14.98335758,0.0003076,70.0,31.0075,270.8541,89.2265,-5.0749e-05,-6.99e-06,0.0,0 STARLINK-6036,1 56800U 23078AK  23289.56435130 -.00000699  00000-0 -50749-4 0  9995,2 56800  70.0000  31.0075 0003076 270.8541  89.2265 14.98335758 21599,6950.175,96.107,574.178,569.902,0.0
56800.0,STARLINK-6036,PAYLOAD,2023-10-16 16:44:55,14.98341431,0.0003001,70.0003,30.6709,271.3084,88.7731,-8.0818e-06,-1.89e-06,0.0,0 STARLINK-6036,1 56800U 23078AK  23289.69786574 -.00000189  00000-0 -80818-5 0  9995,2 56800  70.0003  30.6709 0003001 271.3084  88.7731 14.98341431 21617,6950.158,96.106,574.108,569.937,0.0
56800.0,STARLINK-6036,PAYLOAD,2023-10-17 10:22:25,14.98324309,0.0002879,70.0008,28.8206,271.4595,88.6234,7.463e-05,7.97e-06,0.0,0 STARLINK-6036,1 56800U 23078AK  23290.43223415  .00000797  00000-0  74630-4 0  9996,2 56800  70.0008  28.8206 0002879 271.4595  88.6234 14.98324309 21985,6950.21,96.107,574.076,570.075,0.0
56800.0,STARLINK-6036,PAYLOAD,2023-10-17 13:34:40,14.98328817,0.0003307,69.9998,28.4825,269.0749,91.0031,9.1473e-05,9.99e-06,0.0,0 STARLINK-6036,1 56800U 23078AK  23290.56575014  .00000999  00000-0  91473-4 0  9993,2 56800  69.9998  28.4825 0003307 269.0749  91.0031 14.98328817 21749,6950.197,96.107,574.36,569.763,0.0
56800.0,STARLINK-6036,PAYLOAD,2023-10-18 10:24:25,14.98334691,0.0003138,69.9997,26.2939,270.1424,89.9376,-8.0764e-06,-1.89e-06,0.0,0 STARLINK-6036,1 56800U 23078AK  23291.43362848 -.00000189  00000-0 -80764-5 0  9994,2 56800  69.9997  26.2939 0003138 270.1424  89.9376 14.98334691 22134,6950.178,96.107,574.224,569.862,0.0
56800.0,STARLINK-6036,PAYLOAD,2023-10-18 12:00:33,14.98338398,0.0002575,70.0008,26.1256,270.9588,89.1275,-7.6057e-05,-1e-05,0.0,0 STARLINK-6036,1 56800U 23078AK  23291.50038867 -.00001000  00000-0 -76057-4 0  9995,2 56800  70.0008  26.1256 0002575 270.9588  89.1275 14.98338398 21883,6950.167,96.106,573.822,570.242,0.0
56800.0,STARLINK-6036,PAYLOAD,2023-10-19 10:26:25,14.98333496,0.0002846,70.0,23.7663,255.4672,104.6171,6.7234e-05,7.09e-06,0.0,0 STARLINK-6036,1 56800U 23078AK  23292.43502144  .00000709  00000-0  67234-4 0  9992,2 56800  70.0000  23.7663 0002846 255.4672 104.6171 14.98333496 22280,6950.182,96.107,574.025,570.069,0.0
56800.0,STARLINK-6036,PAYLOAD,2023-10-19 12:02:32,14.98330001,0.0002558,70.0055,23.6036,209.6939,150.4075,0.00054179,6.377e-05,0.0,0 STARLINK-6036,1 56800U 23078AK  23292.50176981  .00006377  00000-0  54179-3 0  9996,2 56800  70.0055  23.6036 0002558 209.6939 150.4075 14.98330001 22034,6950.193,96.107,573.836,570.28,0.0
56800.0,STARLINK-6036,PAYLOAD,2023-10-20 10:28:28,14.98320129,0.000265,70.0013,21.2462,259.0834,101.0027,-0.00015076,-1.891e-05,0.0,0 STARLINK-6036,1 56800U 23078AK  23293.43643523 -.00001891  00000-0 -15076-3 0  9991,2 56800  70.0013  21.2462 0002650 259.0834 101.0027 14.98320129 22434,6950.223,96.108,573.93,570.247,0.0
56800.0,STARLINK-6036,PAYLOAD,2023-10-20 12:04:36,14.98318864,0.0002557,70.0015,21.0777,245.1256,114.9637,-0.00014523,-1.825e-05,0.0,0 STARLINK-6036,1 56800U 23078AK  23293.50319580 -.00001825  00000-0 -14523-3 0  9995,2 56800  70.0015  21.0777 0002557 245.1256 114.9637 14.98318864 22188,6950.227,96.108,573.87,570.315,0.0
56800.0,STARLINK-6036,PAYLOAD,2023-10-21 10:30:28,14.98328005,0.0002434,70.0022,18.7211,236.7028,123.3899,-1.0746e-05,-2.21e-06,0.0,0 STARLINK-6036,1 56800U 23078AK  23294.43782745 -.00000221  00000-0 -10746-4 0  9998,2 56800  70.0022  18.7211 0002434 236.7028 123.3899 14.98328005 22585,6950.199,96.107,573.756,570.372,0.0
56800.0,STARLINK-6036,PAYLOAD,2023-10-21 12:06:22,14.98513725,0.0003172,70.0018,18.552,255.3733,104.7074,0.0020809,0.00024943,0.0,0 STARLINK-6036,1 56800U 23078AK  23294.50442454  .00024943  00000-0  20809-2 0  9990,2 56800  70.0018  18.5520 0003172 255.3733 104.7074 14.98513725 22337,6949.625,96.095,573.694,569.285,0.0
56800.0,STARLINK-6036,PAYLOAD,2023-10-22 12:08:37,14.98325177,0.0003417,69.9993,16.0263,273.0622,87.0146,3.9266e-06,-4.6e-07,0.0,0 STARLINK-6036,1 56800U 23078AK  23295.50599109 -.00000046  00000-0  39266-5 0  9990,2 56800  69.9993  16.0263 0003417 273.0622  87.0146 14.98325177 22749,6950.208,96.107,574.448,569.698,0.0
56800.0,STARLINK-6036,PAYLOAD,2023-10-22 15:20:53,14.98323236,0.0002876,70.0007,15.6906,261.4823,98.601,9.9594e-06,2.6e-07,0.0,0 STARLINK-6036,1 56800U 23078AK  23295.63951095  .00000026  00000-0  99594-5 0  9997,2 56800  70.0007  15.6906 0002876 261.4823  98.6010 14.98323236 22505,6950.214,96.107,574.078,570.08,0.0
56800.0,STARLINK-6036,PAYLOAD,2023-10-23 12:10:38,14.98341851,0.0002664,70.0009,13.5032,262.0074,98.0783,-0.00016791,-2.096e-05,0.0,0 STARLINK-6036,1 56800U 23078AK  23296.50739445 -.00002096  00000-0 -16791-3 0  9994,2 56800  70.0009  13.5032 0002664 262.0074  98.0783 14.98341851 22890,6950.156,96.106,573.873,570.17,0.0
56800.0,STARLINK-6036,PAYLOAD,2023-10-24 12:12:38,14.98344456,0.0002568,70.0011,10.9783,261.8164,98.2704,-2.7271e-05,-4.18e-06,0.0,0 STARLINK-6036,1 56800U 23078AK  23297.50878211 -.00000418  00000-0 -27271-4 0  9992,2 56800  70.0011  10.9783 0002568 261.8164  98.2704 14.98344456 22784,6950.148,96.106,573.798,570.228,0.0
56800.0,STARLINK-6036,PAYLOAD,2023-10-25 13:50:54,14.98257852,0.0001962,70.0036,8.2859,258.8028,101.291,-0.00091593,-0.00010983,0.0,0 STARLINK-6036,1 56800U 23078AK  23298.57701472 -.00010983  00000-0 -91593-3 0  9999,2 56800  70.0036   8.2859 0001962 258.8028 101.2910 14.98257852 23202,6950.416,96.112,573.645,570.917,0.0
56800.0,STARLINK-6036,PAYLOAD,2023-10-25 21:51:26,14.98350941,0.0002046,70.0035,7.4427,295.5657,64.529,0.00065238,7.704e-05,0.0,0 STARLINK-6036,1 56800U 23078AK  23298.91072574  .00007704  00000-0  65238-3 0  9993,2 56800  70.0035   7.4427 0002046 295.5657  64.5290 14.98350941 22993,6950.128,96.106,573.415,570.571,0.0
56800.0,STARLINK-6036,PAYLOAD,2023-10-26 02:39:58,14.98255911,0.0003201,70.0026,6.9375,269.9929,90.0863,-0.00090827,-0.00010893,0.0,0 STARLINK-6036,1 56800U 23078AK  23299.11109390 -.00010893  00000-0 -90827-3 0  9990,2 56800  70.0026   6.9375 0003201 269.9929  90.0863 14.98255911 23284,6950.422,96.112,574.512,570.062,0.0
56800.0,STARLINK-6036,PAYLOAD,2023-10-26 10:40:33,14.98329059,0.0002337,70.0029,6.0959,257.7255,102.3642,-9.9254e-05,-1.277e-05,0.0,0 STARLINK-6036,1 56800U 23078AK  23299.44483111 -.00001277  00000-0 -99254-4 0  9992,2 56800  70.0029   6.0959 0002337 257.7255 102.3642 14.98329059 23335,6950.196,96.107,573.685,570.437,0.0
56800.0,STARLINK-6036,PAYLOAD,2023-10-26 13:52:37,14.98491215,0.0003112,70.0023,5.7588,247.4782,112.6048,0.0016951,0.00020276,0.0,0 STARLINK-6036,1 56800U 23078AK  23299.57820720  .00020276  00000-0  16951-2 0  9996,2 56800  70.0023   5.7588 0003112 247.4782 112.6048 14.98491215 23097,6949.694,96.097,573.722,569.397,0.0
56800.0,STARLINK-6036,PAYLOAD,2023-10-27 10:44:44,14.96621474,0.0009726,70.0023,3.577,146.9035,213.2734,-0.01906,-0.00211512,0.0,0 STARLINK-6036,1 56800U 23078AK  23300.44773485 -.00211512  00000-0 -19060-1 0  9990,2 56800  70.0023   3.5770 0009726 146.9035 213.2734 14.96621474 23480,6955.481,96.217,584.111,570.581,0.0
56800.0,STARLINK-6036,PAYLOAD,2023-10-27 13:54:56,14.98290398,0.0003282,70.0019,3.2346,225.8897,134.1992,0.00024393,2.816e-05,0.0,0 STARLINK-6036,1 56800U 23078AK  23300.57982535  .00002816  00000-0  24393-3 0  9992,2 56800  70.0019   3.2346 0003282 225.8897 134.1992 14.98290398 23245,6950.315,96.11,574.461,569.899,0.0
56800.0,STARLINK-6036,PAYLOAD,2023-10-27 15:31:04,14.98317771,0.0002809,70.0001,3.0645,271.9483,88.1354,0.00017634,2.011e-05,0.0,0 STARLINK-6036,1 56800U 23078AK  23300.64657578  .00002011  00000-0  17634-3 0  9993,2 56800  70.0001   3.0645 0002809 271.9483  88.1354 14.98317771 23518,6950.231,96.108,574.048,570.143,0.0
56800.0,STARLINK-6036,PAYLOAD,2023-10-27 21:55:32,14.98255497,0.0003445,70.0015,2.3924,263.8919,96.1848,0.00033108,3.852e-05,0.0,0 STARLINK-6036,1 56800U 23078AK  23300.91356637  .00003852  00000-0  33108-3 0  9993,2 56800  70.0015   2.3924 0003445 263.8919  96.1848 14.98255497 23553,6950.423,96.112,574.683,569.894,0.0
56800.0,STARLINK-6036,PAYLOAD,2023-10-28 10:44:35,14.98314396,0.000304,70.0001,1.0447,260.4594,99.6222,0.00010923,1.21e-05,0.0,0 STARLINK-6036,1 56800U 23078AK  23301.44763119  .00001210  00000-0  10923-3 0  9995,2 56800  70.0001   1.0447 0003040 260.4594  99.6222 14.98314396 23634,6950.241,96.108,574.219,569.993,0.0
56800.0,STARLINK-6036,PAYLOAD,2023-10-28 13:56:51,14.98322377,0.0003207,70.0004,0.7086,270.5004,89.5787,-1.2989e-05,-2.48e-06,0.0,0 STARLINK-6036,1 56800U 23078AK  23301.58114996 -.00000248  00000-0 -12989-4 0  9990,2 56800  70.0004   0.7086 0003207 270.5004  89.5787 14.98322377 23390,6950.216,96.107,574.31,569.853,0.0
56800.0,STARLINK-6036,PAYLOAD,2023-10-29 04:19:40,15.00232622,0.0010061,69.9996,359.1896,215.6509,144.398,0.020673,0.00269411,0.0,0 STARLINK-6036,1 56800U 23078AK  23302.18032589  .00269411  00000-0  20673-1 0  9997,2 56800  69.9996 359.1896 0010061 215.6509 144.3980 15.00232622 23744,6944.315,95.985,573.167,559.194,0.0
